{
  "type": "FeatureCollection",
  "features": [
    {
      "type": "Feature",
      "properties": {
        "norad_id": 55973,
        "name": "TIANMU-1 03",
        "group": "weather",
        "lat": -73.79013428798059,
        "lon": -59.60522801358127,
        "alt_km": 453.99804524520005,
        "timestamp": "2025-12-10T18:56:59.705228+00:00",
        "meta_object_name": "TIANMU-1 03",
        "meta_object_id": "2023-039A",
        "meta_epoch": "2025-12-10T11:36:34.881984",
        "meta_mean_motion": 15.40816842,
        "meta_eccentricity": 0.0004473,
        "meta_inclination": 97.5112,
        "meta_ra_of_asc_node": 147.0725,
        "meta_arg_of_pericenter": 67.2171,
        "meta_mean_anomaly": 292.9547,
        "meta_ephemeris_type": 0,
        "meta_classification_type": "U",
        "meta_norad_cat_id": 55973,
        "meta_element_set_no": 999,
        "meta_rev_at_epoch": 15171,
        "meta_bstar": 0.00055797,
        "meta_mean_motion_dot": 0.00022828,
        "meta_mean_motion_ddot": 0,
        "tle_line1": "1 55973U 23039A   25344.48373706  .00022828  00000+0  55797-3 0  9999",
        "tle_line2": "2 55973  97.5112 147.0725 0004473  67.2171 292.9547 15.40816842151716"
      },
      "geometry": {
        "type": "Point",
        "coordinates": [
          -59.60522801358127,
          -73.79013428798059
        ]
      }
    },
    {
      "type": "Feature",
      "properties": {
        "norad_id": 55974,
        "name": "TIANMU-1 04",
        "group": "weather",
        "lat": 6.951589710199949,
        "lon": 145.65762210487406,
        "alt_km": 442.80257990070186,
        "timestamp": "2025-12-10T18:56:59.705239+00:00",
        "meta_object_name": "TIANMU-1 04",
        "meta_object_id": "2023-039B",
        "meta_epoch": "2025-12-10T12:41:11.311296",
        "meta_mean_motion": 15.41154329,
        "meta_eccentricity": 0.000515,
        "meta_inclination": 97.5043,
        "meta_ra_of_asc_node": 146.3105,
        "meta_arg_of_pericenter": 62.8679,
        "meta_mean_anomaly": 297.3092,
        "meta_ephemeris_type": 0,
        "meta_classification_type": "U",
        "meta_norad_cat_id": 55974,
        "meta_element_set_no": 999,
        "meta_rev_at_epoch": 15172,
        "meta_bstar": 0.00053981,
        "meta_mean_motion_dot": 0.00022331,
        "meta_mean_motion_ddot": 0,
        "tle_line1": "1 55974U 23039B   25344.52860314  .00022331  00000+0  53981-3 0  9993",
        "tle_line2": "2 55974  97.5043 146.3105 0005150  62.8679 297.3092 15.41154329151722"
      },
      "geometry": {
        "type": "Point",
        "coordinates": [
          145.65762210487406,
          6.951589710199949
        ]
      }
    },
    {
      "type": "Feature",
      "properties": {
        "norad_id": 55975,
        "name": "TIANMU-1 05",
        "group": "weather",
        "lat": 41.17782822432857,
        "lon": 140.44521018925786,
        "alt_km": 438.34092104673164,
        "timestamp": "2025-12-10T18:56:59.705249+00:00",
        "meta_object_name": "TIANMU-1 05",
        "meta_object_id": "2023-039C",
        "meta_epoch": "2025-12-10T12:32:07.223712",
        "meta_mean_motion": 15.40777145,
        "meta_eccentricity": 0.0004368,
        "meta_inclination": 97.5089,
        "meta_ra_of_asc_node": 146.7964,
        "meta_arg_of_pericenter": 84.1764,
        "meta_mean_anomaly": 275.9979,
        "meta_ephemeris_type": 0,
        "meta_classification_type": "U",
        "meta_norad_cat_id": 55975,
        "meta_element_set_no": 999,
        "meta_rev_at_epoch": 15170,
        "meta_bstar": 0.00052701,
        "meta_mean_motion_dot": 0.00021524,
        "meta_mean_motion_ddot": 0,
        "tle_line1": "1 55975U 23039C   25344.52230583  .00021524  00000+0  52701-3 0  9995",
        "tle_line2": "2 55975  97.5089 146.7964 0004368  84.1764 275.9979 15.40777145151702"
      },
      "geometry": {
        "type": "Point",
        "coordinates": [
          140.44521018925786,
          41.17782822432857
        ]
      }
    },
    {
      "type": "Feature",
      "properties": {
        "norad_id": 55976,
        "name": "TIANMU-1 06",
        "group": "weather",
        "lat": -5.37372190297702,
        "lon": 148.24529684784574,
        "alt_km": 445.9758913746655,
        "timestamp": "2025-12-10T18:56:59.705259+00:00",
        "meta_object_name": "TIANMU-1 06",
        "meta_object_id": "2023-039D",
        "meta_epoch": "2025-12-10T12:44:25.672416",
        "meta_mean_motion": 15.41206482,
        "meta_eccentricity": 0.000471,
        "meta_inclination": 97.51,
        "meta_ra_of_asc_node": 147.2683,
        "meta_arg_of_pericenter": 79.8382,
        "meta_mean_anomaly": 280.3395,
        "meta_ephemeris_type": 0,
        "meta_classification_type": "U",
        "meta_norad_cat_id": 55976,
        "meta_element_set_no": 999,
        "meta_rev_at_epoch": 15172,
        "meta_bstar": 0.00052943,
        "meta_mean_motion_dot": 0.00021935,
        "meta_mean_motion_ddot": 0,
        "tle_line1": "1 55976U 23039D   25344.53085269  .00021935  00000+0  52943-3 0  9990",
        "tle_line2": "2 55976  97.5100 147.2683 0004710  79.8382 280.3395 15.41206482151725"
      },
      "geometry": {
        "type": "Point",
        "coordinates": [
          148.24529684784574,
          -5.37372190297702
        ]
      }
    },
    {
      "type": "Feature",
      "properties": {
        "norad_id": 56232,
        "name": "FENGYUN 3G",
        "group": "weather",
        "lat": -21.016278391770374,
        "lon": -141.30955581214585,
        "alt_km": 415.60026244678465,
        "timestamp": "2025-12-10T18:56:59.705269+00:00",
        "meta_object_name": "FENGYUN 3G",
        "meta_object_id": "2023-055A",
        "meta_epoch": "2025-12-10T05:10:32.979072",
        "meta_mean_motion": 15.53405628,
        "meta_eccentricity": 0.000929,
        "meta_inclination": 49.9931,
        "meta_ra_of_asc_node": 240.4781,
        "meta_arg_of_pericenter": 136.4608,
        "meta_mean_anomaly": 223.7095,
        "meta_ephemeris_type": 0,
        "meta_classification_type": "U",
        "meta_norad_cat_id": 56232,
        "meta_element_set_no": 999,
        "meta_rev_at_epoch": 15063,
        "meta_bstar": 0.00066182,
        "meta_mean_motion_dot": 0.00042561,
        "meta_mean_motion_ddot": 0,
        "tle_line1": "1 56232U 23055A   25344.21565948  .00042561  00000+0  66182-3 0  9994",
        "tle_line2": "2 56232  49.9931 240.4781 0009290 136.4608 223.7095 15.53405628150631"
      },
      "geometry": {
        "type": "Point",
        "coordinates": [
          -141.30955581214585,
          -21.016278391770374
        ]
      }
    },
    {
      "type": "Feature",
      "properties": {
        "norad_id": 57166,
        "name": "METEOR-M2 3",
        "group": "weather",
        "lat": -24.392394567429992,
        "lon": 42.31553366180573,
        "alt_km": 815.0009924101214,
        "timestamp": "2025-12-10T18:56:59.705281+00:00",
        "meta_object_name": "METEOR-M2 3",
        "meta_object_id": "2023-091A",
        "meta_epoch": "2025-12-10T12:19:12.906912",
        "meta_mean_motion": 14.24025728,
        "meta_eccentricity": 0.0004035,
        "meta_inclination": 98.6381,
        "meta_ra_of_asc_node": 38.0915,
        "meta_arg_of_pericenter": 15.0793,
        "meta_mean_anomaly": 345.0505,
        "meta_ephemeris_type": 0,
        "meta_classification_type": "U",
        "meta_norad_cat_id": 57166,
        "meta_element_set_no": 999,
        "meta_rev_at_epoch": 12766,
        "meta_bstar": 3.8732e-05,
        "meta_mean_motion_dot": 4.5e-07,
        "meta_mean_motion_ddot": 0,
        "tle_line1": "1 57166U 23091A   25344.51334383  .00000045  00000+0  38732-4 0  9993",
        "tle_line2": "2 57166  98.6381  38.0915 0004035  15.0793 345.0505 14.24025728127664"
      },
      "geometry": {
        "type": "Point",
        "coordinates": [
          42.31553366180573,
          -24.392394567429992
        ]
      }
    },
    {
      "type": "Feature",
      "properties": {
        "norad_id": 57399,
        "name": "TIANMU-1 07",
        "group": "weather",
        "lat": 26.180012119654158,
        "lon": -141.7107781475398,
        "alt_km": 479.4101928801447,
        "timestamp": "2025-12-10T18:56:59.705294+00:00",
        "meta_object_name": "TIANMU-1 07",
        "meta_object_id": "2023-101A",
        "meta_epoch": "2025-12-10T11:59:39.233760",
        "meta_mean_motion": 15.28017883,
        "meta_eccentricity": 0.000561,
        "meta_inclination": 97.2877,
        "meta_ra_of_asc_node": 34.3986,
        "meta_arg_of_pericenter": 87.2315,
        "meta_mean_anomaly": 272.9567,
        "meta_ephemeris_type": 0,
        "meta_classification_type": "U",
        "meta_norad_cat_id": 57399,
        "meta_element_set_no": 999,
        "meta_rev_at_epoch": 13281,
        "meta_bstar": 0.00041993,
        "meta_mean_motion_dot": 0.00011415,
        "meta_mean_motion_ddot": 0,
        "tle_line1": "1 57399U 23101A   25344.49975965  .00011415  00000+0  41993-3 0  9992",
        "tle_line2": "2 57399  97.2877  34.3986 0005610  87.2315 272.9567 15.28017883132812"
      },
      "geometry": {
        "type": "Point",
        "coordinates": [
          -141.7107781475398,
          26.180012119654158
        ]
      }
    }
  ]
}